IRIDIUM 155             
1 43573U 18061E   19152.18766655  .00000076  00000-0  19969-4 0  9991
2 43573  86.3994  51.9909 0002842  93.9421 266.2100 14.34216039 44570
IRIDIUM 154             
1 43574U 18061F   19151.33143251  .00000077  00000-0  20430-4 0  9995
2 43574  86.3998  52.3605 0001868  83.4798 276.6610 14.34216479 44491
IRIDIUM 163             
1 43575U 18061G   19152.21938675  .00000071  00000-0  18176-4 0  9994
2 43575  86.3995  51.9827 0002394  65.2219 294.9225 14.34218214 44596
IRIDIUM 156             
1 43576U 18061H   19152.19401755  .00000072  00000-0  18565-4 0  9999
2 43576  86.3995  51.9978 0002604  79.6959 280.4531 14.34219052 44577
IRIDIUM 164             
1 43577U 18061J   19151.33775646  .00000068  00000-0  17333-4 0  9995
2 43577  86.3996  52.3568 0002013  80.2833 279.8590 14.34220468 44505
IRIDIUM 159             
1 43578U 18061K   19152.21301990  .00000019  00000-0 -14077-6 0  9992
2 43578  86.3995  51.9819 0002040  83.2508 276.8920 14.34214882 44597
IRIDIUM 180             
1 43922U 19002A   19152.56137850  .00000075  00000-0  19601-4 0  9998
2 43922  86.3960 348.6711 0001104  57.8272 302.3031 14.34216614 20298
IRIDIUM 176             
1 43923U 19002B   19152.51301533  .00000140  00000-0  18259-4 0  9996
2 43923  86.6093 348.7078 0002569  83.8502 276.3008 14.72266855 20734
IRIDIUM 168             
1 43924U 19002C   19152.55504356  .00000069  00000-0  17703-4 0  9992
2 43924  86.3961 348.6780 0001784  88.0293 272.1107 14.34216877 20233
IRIDIUM 173             
1 43925U 19002D   19152.54234449  .00000077  00000-0  20509-4 0  9992
2 43925  86.3959 348.6767 0001974  87.1162 273.0259 14.34220050 20227
IRIDIUM 169             
1 43926U 19002E   19152.52374301  .00000104  00000-0  27762-4 0  9992
2 43926  87.4039   1.9912 0004010 128.9427 231.2130 14.38618460 20350
IRIDIUM 172             
1 43927U 19002F   19152.53599917  .00000051  00000-0  11079-4 0  9991
2 43927  86.3960 348.6792 0001833  84.8330 275.3074 14.34215951 20228
IRIDIUM 175             
1 43928U 19002G   19152.50717158  .00000139  00000-0  18103-4 0  9990
2 43928  86.6078 348.6778 0003038 108.8548 251.2999 14.72255677 20728
IRIDIUM 171             
1 43929U 19002H   19152.51698270  .00000074  00000-0  19193-4 0  9993
2 43929  86.3969 348.7077 0001842  88.7186 271.4220 14.34218373 20218
IRIDIUM 170             
1 43930U 19002J   19152.51918003  .00000137  00000-0  17822-4 0  9991
2 43930  86.6094 348.7130 0002889  90.6742 269.4806 14.72267149 20746
IRIDIUM 167             
1 43931U 19002K   19152.51064120  .00000065  00000-0  16319-4 0  9994
2 43931  86.3960 348.6899 0001092  66.7405 293.3905 14.34217137 20210
